CCSDS_OMM_VERS = 2.0
CREATION_DATE  = 
ORIGINATOR     = 

OBJECT_NAME    = H-2A R/B
OBJECT_ID      = 2006-002B
CENTER_NAME    = EARTH
REF_FRAME      = TEME
TIME_SYSTEM    = UTC
MEAN_ELEMENT_THEORY = SGP/SGP4

EPOCH          = 2026-03-10T09:37:26.965920
MEAN_MOTION    = 15.16440954
ECCENTRICITY   = .005187
INCLINATION    = 98.2415
RA_OF_ASC_NODE = 216.4856
ARG_OF_PERICENTER = 238.5346
MEAN_ANOMALY   = 121.0809

EPHEMERIS_TYPE = 0
CLASSIFICATION_TYPE = U
NORAD_CAT_ID   = 28932
ELEMENT_SET_NO = 999
REV_AT_EPOCH   = 9454
BSTAR          = .65433E-3
MEAN_MOTION_DOT = .13102E-3
MEAN_MOTION_DDOT = 0

CCSDS_OMM_VERS = 2.0
CREATION_DATE  = 
ORIGINATOR     = 

OBJECT_NAME    = RESURS-DK 1
OBJECT_ID      = 2006-021A
CENTER_NAME    = EARTH
REF_FRAME      = TEME
TIME_SYSTEM    = UTC
MEAN_ELEMENT_THEORY = SGP/SGP4

EPOCH          = 2026-03-10T20:35:26.416896
MEAN_MOTION    = 15.12754122
ECCENTRICITY   = .0001803
INCLINATION    = 69.9325
RA_OF_ASC_NODE = 234.0005
ARG_OF_PERICENTER = 162.5581
MEAN_ANOMALY   = 197.5647

EPHEMERIS_TYPE = 0
CLASSIFICATION_TYPE = U
NORAD_CAT_ID   = 29228
ELEMENT_SET_NO = 999
REV_AT_EPOCH   = 8770
BSTAR          = .225E-3
MEAN_MOTION_DOT = .3848E-4
MEAN_MOTION_DDOT = 0

CCSDS_OMM_VERS = 2.0
CREATION_DATE  = 
ORIGINATOR     = 

OBJECT_NAME    = CZ-4B R/B
OBJECT_ID      = 2006-046C
CENTER_NAME    = EARTH
REF_FRAME      = TEME
TIME_SYSTEM    = UTC
MEAN_ELEMENT_THEORY = SGP/SGP4

EPOCH          = 2026-03-10T14:22:07.294656
MEAN_MOTION    = 15.16916111
ECCENTRICITY   = .0031692
INCLINATION    = 97.5597
RA_OF_ASC_NODE = 114.5055
ARG_OF_PERICENTER = 263.9723
MEAN_ANOMALY   = 95.7898

EPHEMERIS_TYPE = 0
CLASSIFICATION_TYPE = U
NORAD_CAT_ID   = 29507
ELEMENT_SET_NO = 999
REV_AT_EPOCH   = 6018
BSTAR          = .30025E-3
MEAN_MOTION_DOT = .5924E-4
MEAN_MOTION_DDOT = 0

CCSDS_OMM_VERS = 2.0
CREATION_DATE  = 
ORIGINATOR     = 

OBJECT_NAME    = CZ-2C R/B
OBJECT_ID      = 2007-010B
CENTER_NAME    = EARTH
REF_FRAME      = TEME
TIME_SYSTEM    = UTC
MEAN_ELEMENT_THEORY = SGP/SGP4

EPOCH          = 2026-03-10T20:28:27.384672
MEAN_MOTION    = 14.20246722
ECCENTRICITY   = .0057887
INCLINATION    = 98.3979
RA_OF_ASC_NODE = 183.0734
ARG_OF_PERICENTER = 291.1554
MEAN_ANOMALY   = 68.3443

EPHEMERIS_TYPE = 0
CLASSIFICATION_TYPE = U
NORAD_CAT_ID   = 31114
ELEMENT_SET_NO = 999
REV_AT_EPOCH   = 97988
BSTAR          = .95774E-4
MEAN_MOTION_DOT = .166E-5
MEAN_MOTION_DDOT = 0

CCSDS_OMM_VERS = 2.0
CREATION_DATE  = 
ORIGINATOR     = 

OBJECT_NAME    = COSMO-SKYMED 1
OBJECT_ID      = 2007-023A
CENTER_NAME    = EARTH
REF_FRAME      = TEME
TIME_SYSTEM    = UTC
MEAN_ELEMENT_THEORY = SGP/SGP4

EPOCH          = 2026-03-10T19:13:37.769376
MEAN_MOTION    = 14.96544983
ECCENTRICITY   = .0001355
INCLINATION    = 97.8875
RA_OF_ASC_NODE = 260.8416
ARG_OF_PERICENTER = 99.4831
MEAN_ANOMALY   = 260.6543

EPHEMERIS_TYPE = 0
CLASSIFICATION_TYPE = U
NORAD_CAT_ID   = 31598
ELEMENT_SET_NO = 999
REV_AT_EPOCH   = 1507
BSTAR          = .38307E-3
MEAN_MOTION_DOT = .4298E-4
MEAN_MOTION_DDOT = 0

CCSDS_OMM_VERS = 2.0
CREATION_DATE  = 
ORIGINATOR     = 

OBJECT_NAME    = COSMOS 2428
OBJECT_ID      = 2007-029A
CENTER_NAME    = EARTH
REF_FRAME      = TEME
TIME_SYSTEM    = UTC
MEAN_ELEMENT_THEORY = SGP/SGP4

EPOCH          = 2026-03-10T21:06:57.050208
MEAN_MOTION    = 14.12946414
ECCENTRICITY   = .0009152
INCLINATION    = 70.9434
RA_OF_ASC_NODE = 200.8448
ARG_OF_PERICENTER = 275.8897
MEAN_ANOMALY   = 84.1181

EPHEMERIS_TYPE = 0
CLASSIFICATION_TYPE = U
NORAD_CAT_ID   = 31792
ELEMENT_SET_NO = 999
REV_AT_EPOCH   = 96426
BSTAR          = .55157E-4
MEAN_MOTION_DOT = .55E-6
MEAN_MOTION_DDOT = 0

CCSDS_OMM_VERS = 2.0
CREATION_DATE  = 
ORIGINATOR     = 

OBJECT_NAME    = SL-16 R/B
OBJECT_ID      = 2007-029B
CENTER_NAME    = EARTH
REF_FRAME      = TEME
TIME_SYSTEM    = UTC
MEAN_ELEMENT_THEORY = SGP/SGP4

EPOCH          = 2026-03-10T17:09:17.234784
MEAN_MOTION    = 14.14833651
ECCENTRICITY   = .0002282
INCLINATION    = 70.9759
RA_OF_ASC_NODE = 170.2304
ARG_OF_PERICENTER = 275.9843
MEAN_ANOMALY   = 246.4106

EPHEMERIS_TYPE = 0
CLASSIFICATION_TYPE = U
NORAD_CAT_ID   = 31793
ELEMENT_SET_NO = 999
REV_AT_EPOCH   = 96551
BSTAR          = .74194E-4
MEAN_MOTION_DOT = .95E-6
MEAN_MOTION_DDOT = 0

CCSDS_OMM_VERS = 2.0
CREATION_DATE  = 
ORIGINATOR     = 

OBJECT_NAME    = KORONAS-FOTON
OBJECT_ID      = 2009-003A
CENTER_NAME    = EARTH
REF_FRAME      = TEME
TIME_SYSTEM    = UTC
MEAN_ELEMENT_THEORY = SGP/SGP4

EPOCH          = 2026-03-10T14:34:20.385696
MEAN_MOTION    = 15.43342480
ECCENTRICITY   = .0011357
INCLINATION    = 82.4279
RA_OF_ASC_NODE = 274.9239
ARG_OF_PERICENTER = 146.5620
MEAN_ANOMALY   = 213.6347

EPHEMERIS_TYPE = 0
CLASSIFICATION_TYPE = U
NORAD_CAT_ID   = 33504
ELEMENT_SET_NO = 999
REV_AT_EPOCH   = 94588
BSTAR          = .25155E-3
MEAN_MOTION_DOT = .11276E-3
MEAN_MOTION_DDOT = 0

CCSDS_OMM_VERS = 2.0
CREATION_DATE  = 
ORIGINATOR     = 

OBJECT_NAME    = CZ-2C R/B
OBJECT_ID      = 2011-030B
CENTER_NAME    = EARTH
REF_FRAME      = TEME
TIME_SYSTEM    = UTC
MEAN_ELEMENT_THEORY = SGP/SGP4

EPOCH          = 2026-03-10T19:50:34.154016
MEAN_MOTION    = 14.81227927
ECCENTRICITY   = .0052289
INCLINATION    = 97.8543
RA_OF_ASC_NODE = 27.0671
ARG_OF_PERICENTER = 348.3992
MEAN_ANOMALY   = 66.9302

EPHEMERIS_TYPE = 0
CLASSIFICATION_TYPE = U
NORAD_CAT_ID   = 37731
ELEMENT_SET_NO = 999
REV_AT_EPOCH   = 79026
BSTAR          = .26867E-3
MEAN_MOTION_DOT = .2087E-4
MEAN_MOTION_DDOT = 0

CCSDS_OMM_VERS = 2.0
CREATION_DATE  = 
ORIGINATOR     = 

OBJECT_NAME    = H-2A R/B
OBJECT_ID      = 2012-025E
CENTER_NAME    = EARTH
REF_FRAME      = TEME
TIME_SYSTEM    = UTC
MEAN_ELEMENT_THEORY = SGP/SGP4

EPOCH          = 2026-03-10T20:47:25.555200
MEAN_MOTION    = 14.95181483
ECCENTRICITY   = .0043285
INCLINATION    = 98.4739
RA_OF_ASC_NODE = 37.0069
ARG_OF_PERICENTER = 310.5321
MEAN_ANOMALY   = 49.2130

EPHEMERIS_TYPE = 0
CLASSIFICATION_TYPE = U
NORAD_CAT_ID   = 38341
ELEMENT_SET_NO = 999
REV_AT_EPOCH   = 74839
BSTAR          = .38843E-3
MEAN_MOTION_DOT = .4277E-4
MEAN_MOTION_DDOT = 0

CCSDS_OMM_VERS = 2.0
CREATION_DATE  = 
ORIGINATOR     = 

OBJECT_NAME    = SHIJIAN-16 (SJ-16)
OBJECT_ID      = 2013-057A
CENTER_NAME    = EARTH
REF_FRAME      = TEME
TIME_SYSTEM    = UTC
MEAN_ELEMENT_THEORY = SGP/SGP4

EPOCH          = 2026-03-10T20:03:27.636192
MEAN_MOTION    = 14.92349451
ECCENTRICITY   = .0015549
INCLINATION    = 74.9730
RA_OF_ASC_NODE = 182.9185
ARG_OF_PERICENTER = 109.5551
MEAN_ANOMALY   = 250.7318

EPHEMERIS_TYPE = 0
CLASSIFICATION_TYPE = U
NORAD_CAT_ID   = 39358
ELEMENT_SET_NO = 999
REV_AT_EPOCH   = 67167
BSTAR          = -.19821E-4
MEAN_MOTION_DOT = -.233E-5
MEAN_MOTION_DDOT = 0

CCSDS_OMM_VERS = 2.0
CREATION_DATE  = 
ORIGINATOR     = 

OBJECT_NAME    = SL-4 R/B
OBJECT_ID      = 2014-021B
CENTER_NAME    = EARTH
REF_FRAME      = TEME
TIME_SYSTEM    = UTC
MEAN_ELEMENT_THEORY = SGP/SGP4

EPOCH          = 2026-03-10T17:35:04.165440
MEAN_MOTION    = 15.39220395
ECCENTRICITY   = .009742
INCLINATION    = 51.6081
RA_OF_ASC_NODE = 332.1903
ARG_OF_PERICENTER = 106.8139
MEAN_ANOMALY   = 254.3558

EPHEMERIS_TYPE = 0
CLASSIFICATION_TYPE = U
NORAD_CAT_ID   = 39679
ELEMENT_SET_NO = 999
REV_AT_EPOCH   = 65643
BSTAR          = .39689E-3
MEAN_MOTION_DOT = .18107E-3
MEAN_MOTION_DDOT = 0

