H-2A R/B                
1 28932U 06002B   26069.40100655  .00013102  00000+0  65433-3 0  9996
2 28932  98.2415 216.4856 0051870 238.5346 121.0809 15.16440954 94541
RESURS-DK 1             
1 29228U 06021A   26069.85794464  .00003848  00000+0  22500-3 0  9996
2 29228  69.9325 234.0005 0001803 162.5581 197.5647 15.12754122 87704
CZ-4B R/B               
1 29507U 06046C   26069.59869554  .00005924  00000+0  30025-3 0  9995
2 29507  97.5597 114.5055 0031692 263.9723  95.7898 15.16916111 60184
CZ-2C R/B               
1 31114U 07010B   26069.85309473  .00000166  00000+0  95774-4 0  9998
2 31114  98.3979 183.0734 0057887 291.1554  68.3443 14.20246722979884
COSMO-SKYMED 1          
1 31598U 07023A   26069.80113159  .00004298  00000+0  38307-3 0  9995
2 31598  97.8875 260.8416 0001355  99.4831 260.6543 14.96544983 15079
COSMOS 2428             
1 31792U 07029A   26069.87982697  .00000055  00000+0  55157-4 0  9995
2 31792  70.9434 200.8448 0009152 275.8897  84.1181 14.12946414964266
SL-16 R/B               
1 31793U 07029B   26069.71478281  .00000095  00000+0  74194-4 0  9994
2 31793  70.9759 170.2304 0002282 275.9843 246.4106 14.14833651965516
KORONAS-FOTON           
1 33504U 09003A   26069.60718039  .00011276  00000+0  25155-3 0  9991
2 33504  82.4279 274.9239 0011357 146.5620 213.6347 15.43342480945880
CZ-2C R/B               
1 37731U 11030B   26069.82678419  .00002087  00000+0  26867-3 0  9992
2 37731  97.8543  27.0671 0052289 348.3992  66.9302 14.81227927790269
H-2A R/B                
1 38341U 12025E   26069.86626800  .00004277  00000+0  38843-3 0  9996
2 38341  98.4739  37.0069 0043285 310.5321  49.2130 14.95181483748397
SHIJIAN-16 (SJ-16)      
1 39358U 13057A   26069.83573653 -.00000233  00000+0 -19821-4 0  9991
2 39358  74.9730 182.9185 0015549 109.5551 250.7318 14.92349451671679
SL-4 R/B                
1 39679U 14021B   26069.73268710  .00018107  00000+0  39689-3 0  9993
2 39679  51.6081 332.1903 0097420 106.8139 254.3558 15.39220395656433
